STARLINK-35875          
1 67111U 25299K   26007.71326783  .00073350  00000+0  12416-2 0  9998
2 67111  42.9999 160.0255 0001609 259.7893 100.2785 15.50642481  3718
STARLINK-35906          
1 67112U 25299L   26007.71261228  .00059625  00000+0  10193-2 0  9990
2 67112  43.0001 160.0197 0006798 307.6090  52.4153 15.50421393  3710
STARLINK-35789          
1 67113U 25299M   26007.83335648 -.02024462  00000+0 -43013-1 0  9993
2 67113  43.0001 159.3193 0001463 269.9510  43.5227 15.47596401  4891
STARLINK-36180          
1 67114U 25299N   26007.71189548  .00097066  00000+0  16390-2 0  9992
2 67114  43.0000 160.0132 0001509 266.2314  93.8373 15.50594229  3716
STARLINK-35892          
1 67115U 25299P   26007.83335648  .00106515  00000+0  25253-2 0  9998
2 67115  43.0003 159.4843 0001419 281.6443 323.8560 15.40656382  4897
STARLINK-35738          
1 67116U 25299Q   26007.83335648  .00093028  00000+0  22120-2 0  9993
2 67116  43.0000 159.3939 0001377 274.4364   8.4154 15.40634236  4894
STARLINK-35674          
1 67117U 25299R   26007.83335648  .00089141  00000+0  21199-2 0  9990
2 67117  43.0010 159.6058 0002043 279.3133 276.4417 15.40649752  4797
STARLINK-35701          
1 67118U 25299S   26007.71052431  .00109421  00000+0  18419-2 0  9999
2 67118  42.9999 160.0027 0001915 266.1476  93.9165 15.50625925  3715
STARLINK-36179          
1 67119U 25299T   26007.83335648  .00085184  00000+0  20272-2 0  9996
2 67119  43.0009 159.5741 0001599 276.5167 291.6770 15.40648654  5002
STARLINK-36217          
1 67120U 25299U   26007.71018087  .00099314  00000+0  16766-2 0  9993
2 67120  42.9999 159.9991 0001341 259.8711 100.1998 15.50590310  3713
STARLINK-36124          
1 67121U 25299V   26007.12944737  .00118144  00000+0  19921-2 0  9998
2 67121  42.9991 163.3817 0002545  10.5156 349.5757 15.50538893  3624
STARLINK-36188          
1 67122U 25299W   26007.83335648 -.01779651  00000+0 -42935-1 0  9991
2 67122  43.0008 159.3131 0000991 265.2476  51.5243 15.43510027  5002
