CCSDS_OMM_VERS = 2.0
CREATION_DATE  = 
ORIGINATOR     = 

OBJECT_NAME    = STARLINK-35875
OBJECT_ID      = 2025-299K
CENTER_NAME    = EARTH
REF_FRAME      = TEME
TIME_SYSTEM    = UTC
MEAN_ELEMENT_THEORY = SGP/SGP4

EPOCH          = 2026-01-07T17:07:06.340512
MEAN_MOTION    = 15.50642481
ECCENTRICITY   = .0001609
INCLINATION    = 42.9999
RA_OF_ASC_NODE = 160.0255
ARG_OF_PERICENTER = 259.7893
MEAN_ANOMALY   = 100.2785

EPHEMERIS_TYPE = 0
CLASSIFICATION_TYPE = U
NORAD_CAT_ID   = 67111
ELEMENT_SET_NO = 999
REV_AT_EPOCH   = 371
BSTAR          = .12416E-2
MEAN_MOTION_DOT = .7335E-3
MEAN_MOTION_DDOT = 0

CCSDS_OMM_VERS = 2.0
CREATION_DATE  = 
ORIGINATOR     = 

OBJECT_NAME    = STARLINK-35906
OBJECT_ID      = 2025-299L
CENTER_NAME    = EARTH
REF_FRAME      = TEME
TIME_SYSTEM    = UTC
MEAN_ELEMENT_THEORY = SGP/SGP4

EPOCH          = 2026-01-07T17:06:09.700992
MEAN_MOTION    = 15.50421393
ECCENTRICITY   = .0006798
INCLINATION    = 43.0001
RA_OF_ASC_NODE = 160.0197
ARG_OF_PERICENTER = 307.6090
MEAN_ANOMALY   = 52.4153

EPHEMERIS_TYPE = 0
CLASSIFICATION_TYPE = U
NORAD_CAT_ID   = 67112
ELEMENT_SET_NO = 999
REV_AT_EPOCH   = 371
BSTAR          = .10193E-2
MEAN_MOTION_DOT = .59625E-3
MEAN_MOTION_DDOT = 0

CCSDS_OMM_VERS = 2.0
CREATION_DATE  = 
ORIGINATOR     = 

OBJECT_NAME    = STARLINK-35789
OBJECT_ID      = 2025-299M
CENTER_NAME    = EARTH
REF_FRAME      = TEME
TIME_SYSTEM    = UTC
MEAN_ELEMENT_THEORY = SGP/SGP4

EPOCH          = 2026-01-07T20:00:01.999872
MEAN_MOTION    = 15.47596401
ECCENTRICITY   = .0001463
INCLINATION    = 43.0001
RA_OF_ASC_NODE = 159.3193
ARG_OF_PERICENTER = 269.9510
MEAN_ANOMALY   = 43.5227

EPHEMERIS_TYPE = 0
CLASSIFICATION_TYPE = U
NORAD_CAT_ID   = 67113
ELEMENT_SET_NO = 999
REV_AT_EPOCH   = 489
BSTAR          = -.43013E-1
MEAN_MOTION_DOT = -.2024462E-1
MEAN_MOTION_DDOT = 0

CCSDS_OMM_VERS = 2.0
CREATION_DATE  = 
ORIGINATOR     = 

OBJECT_NAME    = STARLINK-36180
OBJECT_ID      = 2025-299N
CENTER_NAME    = EARTH
REF_FRAME      = TEME
TIME_SYSTEM    = UTC
MEAN_ELEMENT_THEORY = SGP/SGP4

EPOCH          = 2026-01-07T17:05:07.769472
MEAN_MOTION    = 15.50594229
ECCENTRICITY   = .0001509
INCLINATION    = 43.0000
RA_OF_ASC_NODE = 160.0132
ARG_OF_PERICENTER = 266.2314
MEAN_ANOMALY   = 93.8373

EPHEMERIS_TYPE = 0
CLASSIFICATION_TYPE = U
NORAD_CAT_ID   = 67114
ELEMENT_SET_NO = 999
REV_AT_EPOCH   = 371
BSTAR          = .1639E-2
MEAN_MOTION_DOT = .97066E-3
MEAN_MOTION_DDOT = 0

CCSDS_OMM_VERS = 2.0
CREATION_DATE  = 
ORIGINATOR     = 

OBJECT_NAME    = STARLINK-35892
OBJECT_ID      = 2025-299P
CENTER_NAME    = EARTH
REF_FRAME      = TEME
TIME_SYSTEM    = UTC
MEAN_ELEMENT_THEORY = SGP/SGP4

EPOCH          = 2026-01-07T20:00:01.999872
MEAN_MOTION    = 15.40656382
ECCENTRICITY   = .0001419
INCLINATION    = 43.0003
RA_OF_ASC_NODE = 159.4843
ARG_OF_PERICENTER = 281.6443
MEAN_ANOMALY   = 323.8560

EPHEMERIS_TYPE = 0
CLASSIFICATION_TYPE = U
NORAD_CAT_ID   = 67115
ELEMENT_SET_NO = 999
REV_AT_EPOCH   = 489
BSTAR          = .25253E-2
MEAN_MOTION_DOT = .106515E-2
MEAN_MOTION_DDOT = 0

CCSDS_OMM_VERS = 2.0
CREATION_DATE  = 
ORIGINATOR     = 

OBJECT_NAME    = STARLINK-35738
OBJECT_ID      = 2025-299Q
CENTER_NAME    = EARTH
REF_FRAME      = TEME
TIME_SYSTEM    = UTC
MEAN_ELEMENT_THEORY = SGP/SGP4

EPOCH          = 2026-01-07T20:00:01.999872
MEAN_MOTION    = 15.40634236
ECCENTRICITY   = .0001377
INCLINATION    = 43.0000
RA_OF_ASC_NODE = 159.3939
ARG_OF_PERICENTER = 274.4364
MEAN_ANOMALY   = 8.4154

EPHEMERIS_TYPE = 0
CLASSIFICATION_TYPE = U
NORAD_CAT_ID   = 67116
ELEMENT_SET_NO = 999
REV_AT_EPOCH   = 489
BSTAR          = .2212E-2
MEAN_MOTION_DOT = .93028E-3
MEAN_MOTION_DDOT = 0

CCSDS_OMM_VERS = 2.0
CREATION_DATE  = 
ORIGINATOR     = 

OBJECT_NAME    = STARLINK-35674
OBJECT_ID      = 2025-299R
CENTER_NAME    = EARTH
REF_FRAME      = TEME
TIME_SYSTEM    = UTC
MEAN_ELEMENT_THEORY = SGP/SGP4

EPOCH          = 2026-01-07T20:00:01.999872
MEAN_MOTION    = 15.40649752
ECCENTRICITY   = .0002043
INCLINATION    = 43.0010
RA_OF_ASC_NODE = 159.6058
ARG_OF_PERICENTER = 279.3133
MEAN_ANOMALY   = 276.4417

EPHEMERIS_TYPE = 0
CLASSIFICATION_TYPE = U
NORAD_CAT_ID   = 67117
ELEMENT_SET_NO = 999
REV_AT_EPOCH   = 479
BSTAR          = .21199E-2
MEAN_MOTION_DOT = .89141E-3
MEAN_MOTION_DDOT = 0

CCSDS_OMM_VERS = 2.0
CREATION_DATE  = 
ORIGINATOR     = 

OBJECT_NAME    = STARLINK-35701
OBJECT_ID      = 2025-299S
CENTER_NAME    = EARTH
REF_FRAME      = TEME
TIME_SYSTEM    = UTC
MEAN_ELEMENT_THEORY = SGP/SGP4

EPOCH          = 2026-01-07T17:03:09.300384
MEAN_MOTION    = 15.50625925
ECCENTRICITY   = .0001915
INCLINATION    = 42.9999
RA_OF_ASC_NODE = 160.0027
ARG_OF_PERICENTER = 266.1476
MEAN_ANOMALY   = 93.9165

EPHEMERIS_TYPE = 0
CLASSIFICATION_TYPE = U
NORAD_CAT_ID   = 67118
ELEMENT_SET_NO = 999
REV_AT_EPOCH   = 371
BSTAR          = .18419E-2
MEAN_MOTION_DOT = .109421E-2
MEAN_MOTION_DDOT = 0

CCSDS_OMM_VERS = 2.0
CREATION_DATE  = 
ORIGINATOR     = 

OBJECT_NAME    = STARLINK-36179
OBJECT_ID      = 2025-299T
CENTER_NAME    = EARTH
REF_FRAME      = TEME
TIME_SYSTEM    = UTC
MEAN_ELEMENT_THEORY = SGP/SGP4

EPOCH          = 2026-01-07T20:00:01.999872
MEAN_MOTION    = 15.40648654
ECCENTRICITY   = .0001599
INCLINATION    = 43.0009
RA_OF_ASC_NODE = 159.5741
ARG_OF_PERICENTER = 276.5167
MEAN_ANOMALY   = 291.6770

EPHEMERIS_TYPE = 0
CLASSIFICATION_TYPE = U
NORAD_CAT_ID   = 67119
ELEMENT_SET_NO = 999
REV_AT_EPOCH   = 500
BSTAR          = .20272E-2
MEAN_MOTION_DOT = .85184E-3
MEAN_MOTION_DDOT = 0

CCSDS_OMM_VERS = 2.0
CREATION_DATE  = 
ORIGINATOR     = 

OBJECT_NAME    = STARLINK-36217
OBJECT_ID      = 2025-299U
CENTER_NAME    = EARTH
REF_FRAME      = TEME
TIME_SYSTEM    = UTC
MEAN_ELEMENT_THEORY = SGP/SGP4

EPOCH          = 2026-01-07T17:02:39.627168
MEAN_MOTION    = 15.50590310
ECCENTRICITY   = .0001341
INCLINATION    = 42.9999
RA_OF_ASC_NODE = 159.9991
ARG_OF_PERICENTER = 259.8711
MEAN_ANOMALY   = 100.1998

EPHEMERIS_TYPE = 0
CLASSIFICATION_TYPE = U
NORAD_CAT_ID   = 67120
ELEMENT_SET_NO = 999
REV_AT_EPOCH   = 371
BSTAR          = .16766E-2
MEAN_MOTION_DOT = .99314E-3
MEAN_MOTION_DDOT = 0

CCSDS_OMM_VERS = 2.0
CREATION_DATE  = 
ORIGINATOR     = 

OBJECT_NAME    = STARLINK-36124
OBJECT_ID      = 2025-299V
CENTER_NAME    = EARTH
REF_FRAME      = TEME
TIME_SYSTEM    = UTC
MEAN_ELEMENT_THEORY = SGP/SGP4

EPOCH          = 2026-01-07T03:06:24.252768
MEAN_MOTION    = 15.50538893
ECCENTRICITY   = .00025455
INCLINATION    = 42.9991
RA_OF_ASC_NODE = 163.3817
ARG_OF_PERICENTER = 10.5156
MEAN_ANOMALY   = 349.5757

EPHEMERIS_TYPE = 0
CLASSIFICATION_TYPE = U
NORAD_CAT_ID   = 67121
ELEMENT_SET_NO = 999
REV_AT_EPOCH   = 362
BSTAR          = .19921456E-2
MEAN_MOTION_DOT = .118144E-2
MEAN_MOTION_DDOT = 0

CCSDS_OMM_VERS = 2.0
CREATION_DATE  = 
ORIGINATOR     = 

OBJECT_NAME    = STARLINK-36188
OBJECT_ID      = 2025-299W
CENTER_NAME    = EARTH
REF_FRAME      = TEME
TIME_SYSTEM    = UTC
MEAN_ELEMENT_THEORY = SGP/SGP4

EPOCH          = 2026-01-07T20:00:01.999872
MEAN_MOTION    = 15.43510027
ECCENTRICITY   = .0000991
INCLINATION    = 43.0008
RA_OF_ASC_NODE = 159.3131
ARG_OF_PERICENTER = 265.2476
MEAN_ANOMALY   = 51.5243

EPHEMERIS_TYPE = 0
CLASSIFICATION_TYPE = U
NORAD_CAT_ID   = 67122
ELEMENT_SET_NO = 999
REV_AT_EPOCH   = 500
BSTAR          = -.42935E-1
MEAN_MOTION_DOT = -.1779651E-1
MEAN_MOTION_DDOT = 0

